ISS OBJECT XX           
1 66911U 98067XX  26065.40607185  .00240114  00000+0  16386-2 0  9990
2 66911  51.6211  80.9498 0007025  63.2110 296.9607 15.73534846 14679
ISS OBJECT XY           
1 66912U 98067XY  26065.44936360  .00091647  00000+0  98520-3 0  9991
2 66912  51.6268  83.5178 0003032  70.8849 289.2473 15.62981143 14640
ISS OBJECT XZ           
1 67683U 98067XZ  26065.44303726  .00040277  00000+0  67173-3 0  9994
2 67683  51.6308  87.9775 0009459 174.9626 185.1460 15.51523335  4282
GXIBA-1                 
1 67684U 98067YA  26065.35635560  .00076870  00000+0  11728-2 0  9991
2 67684  51.6296  88.1497 0010932 164.4811 195.6517 15.53698977  4276
CORAL                   
1 67685U 98067YB  26065.37492343  .00044090  00000+0  72551-3 0  9995
2 67685  51.6303  88.2731 0011331 171.0094 189.1100 15.51836923  4278
ISS OBJECT YC           
1 67686U 98067YC  26065.37047129  .00051923  00000+0  83919-3 0  9997
2 67686  51.6305  88.2448 0007826 138.7374 221.4209 15.52303119  4278
LEOPARD                 
1 67687U 98067YD  26065.44105420  .00044085  00000+0  73033-3 0  9992
2 67687  51.6311  87.9659 0007779 143.5641 216.5880 15.51685674  4205
ISS OBJECT YE           
1 67688U 98067YE  26065.37246683  .00047802  00000+0  77966-3 0  9991
2 67688  51.6307  88.2580 0007752 139.1868 220.9703 15.52085564  4195
CREW DRAGON 12          
1 67796U 26031A   26065.54469341  .00009332  00000+0  18044-3 0  9998
2 67796  51.6317  87.9051 0008117 163.3368 196.7888 15.48477653555728
